ONEWEB-0374             
1 49300U 21090X   23059.25057373 -.00000176  00000+0 -50822-3 0  9994
2 49300  87.9131 169.4003 0001629 103.9723 256.1588 13.14501825 70555
ONEWEB-0374             
1 49300U 21090X   23059.32669169 -.00000179  00000+0 -51826-3 0  9992
2 49300  87.9131 169.3854 0001633 103.8300 256.3011 13.14501717 69273
ONEWEB-0374             
1 49300U 21090X   23059.85951796 -.00000301  00000+0 -84512-3 0  9995
2 49300  87.9127 169.2798 0001642 103.5994 256.5319 13.14501114 69342
ONEWEB-0374             
1 49300U 21090X   23060.31622390 -.00000044  00000+0 -15365-3 0  9997
2 49300  87.9128 169.1899 0001640 102.9032 257.2281 13.14502316 70699
ONEWEB-0374             
1 49300U 21090X   23060.84905019 -.00000077  00000+0 -24184-3 0  9992
2 49300  87.9127 169.0845 0001603 101.7452 258.3858 13.14501478 69474
ONEWEB-0374             
1 49300U 21090X   23061.30575534 -.00000284  00000+0 -80143-3 0  9996
2 49300  87.9129 168.9945 0001777 102.7809 257.3519 13.14504688 69530
ONEWEB-0374             
1 49300U 21090X   23062.29529034  .00000019  00000+0  17495-4 0  9994
2 49300  87.9123 168.7987 0001569 101.6634 258.4672 13.14501548 69669
ONEWEB-0374             
1 49300U 21090X   23062.29529034  .00000019  00000+0  17495-4 0  9994
2 49300  87.9123 168.7987 0001569 101.6634 258.4672 13.14501548 70953
